ONEWEB-0029             
1 45445U 20020X   24122.39486503 -.00000256  00000+0 -75673-3 0  9990
2 45445  87.9000 175.5790 0001834  97.0645 263.0691 13.11416721200847
ONEWEB-0068             
1 45446U 20020Y   24122.44599842  .00000568  00000+0  15661-2 0  9992
2 45446  87.9002 175.5540 0001953 102.1010 258.0336 13.11418081200794
ONEWEB-0046             
1 45447U 20020Z   24122.44356331  .00000556  00000+0  15322-2 0  9998
2 45447  87.9002 175.5667 0001853  88.7642 271.3698 13.11419147200809
ONEWEB-0063             
1 45448U 20020AA  24122.39648278 -.00000353  00000+0 -10311-2 0  9997
2 45448  87.8998 175.5773 0002041  88.1303 272.0059 13.11417606200884
ONEWEB-0019             
1 45449U 20020AB  24122.44681997  .00000524  00000+0  14422-2 0  9994
2 45449  87.9003 175.5685 0002242  97.2422 262.8960 13.11415883200738
ONEWEB-0094             
1 45450U 20020AC  24122.37801358  .00000013  00000+0  42558-7 0  9992
2 45450  87.9187 160.4354 0001854  96.8016 263.3326 13.17647713204013
ONEWEB-0087             
1 45451U 20020AD  24122.40296535 -.00000475  00000+0 -13753-2 0  9996
2 45451  87.8994 175.5499 0001786  98.6327 261.5004 13.11415453200775
ONEWEB-0082             
1 45452U 20020AE  24122.86237752 -.00000495  00000+0 -14329-2 0  9995
2 45452  87.8998 175.4619 0002106  99.0140 261.1227 13.11417437200933
ONEWEB-0050             
1 45453U 20020AF  24122.50624273  .00004394  00000+0  46211-3 0  9991
2 45453  88.0050  39.9580 0000713 169.1029 191.0215 14.89238226224672
ONEWEB-0034             
1 45454U 20020AG  24122.72926842 -.00000005  00000+0 -50174-4 0  9994
2 45454  87.9003 175.5063 0002024  97.3450 262.7908 13.11420250200830
ONEWEB-0060             
1 45455U 20020AH  24122.43220252  .00000415  00000+0  11340-2 0  9998
2 45455  87.9005 175.5633 0001899  94.7318 265.4027 13.11418680200745
ONEWEB-0086             
1 45456U 20020AJ  24122.37376254  .00000510  00000+0  14036-2 0  9997
2 45456  87.8999 175.5781 0001647 104.0523 256.0788 13.11415451200793
ONEWEB-0088             
1 45457U 20020AK  24122.42733070  .00000183  00000+0  47960-3 0  9996
2 45457  87.8998 175.5345 0001925  96.2165 263.9182 13.11418960200739
ONEWEB-0102             
1 47258U 20100A   24122.81268661  .00000398  00000+0  10710-2 0  9998
2 47258  87.8940 145.2494 0002207  92.8622 267.2760 13.12443357162892
ONEWEB-0109             
1 47259U 20100B   24122.82062349  .00000593  00000+0  16129-2 0  9992
2 47259  87.8941 145.2117 0002168  94.2487 265.8889 13.12442681162724
ONEWEB-0110             
1 47260U 20100C   24122.46325508 -.00000217  00000+0 -63816-3 0  9994
2 47260  87.8936 145.2904 0002125  97.7394 262.3976 13.12442315162848
ONEWEB-0111             
1 47261U 20100D   24122.34413828  .00000156  00000+0  39911-3 0  9994
2 47261  87.8942 145.3084 0002120  94.5120 265.6251 13.12445749162669
ONEWEB-0114             
1 47262U 20100E   24122.45055220  .00000201  00000+0  52214-3 0  9997
2 47262  87.8937 145.3047 0002549  90.2073 269.9347 13.12443306162635
ONEWEB-0117             
1 47263U 20100F   24122.06143307  .00000287  00000+0  76141-3 0  9998
2 47263  87.8942 145.3553 0002008  92.4273 267.7085 13.12442136162590
ONEWEB-0118             
1 47264U 20100G   24122.77932274 -.00000441  00000+0 -12621-2 0  9992
2 47264  87.8940 145.2166 0002459  81.7492 278.3916 13.12443602162884
ONEWEB-0119             
1 47265U 20100H   24122.80791925  .00000230  00000+0  60426-3 0  9994
2 47265  87.8940 145.2498 0002036  95.7710 264.3651 13.12441602162869
ONEWEB-0120             
1 47266U 20100J   24122.29662337  .00000274  00000+0  72701-3 0  9999
2 47266  87.8943 145.3398 0002134  95.1639 264.9733 13.12442683162829
ONEWEB-0121             
1 47267U 20100K   24122.81903464  .00000498  00000+0  13490-2 0  9994
2 47267  87.8936 145.2296 0001949  96.6299 263.5051 13.12444217162800
ONEWEB-0122             
1 47268U 20100L   24122.35669797  .00000507  00000+0  13741-2 0  9992
2 47268  87.8938 145.3260 0002176  96.2810 263.8567 13.12445776162652
ONEWEB-0123             
1 47269U 20100M   24122.80950585  .00000316  00000+0  84175-3 0  9999
2 47269  87.8940 145.2483 0002102  89.9336 270.2034 13.12444558162853
ONEWEB-0124             
1 47270U 20100N   24122.34096384  .00000047  00000+0  96264-4 0  9992
2 47270  87.8942 145.3375 0001824  99.6937 260.4397 13.12444614162679
ONEWEB-0125             
1 47271U 20100P   24122.77295303 -.00000428  00000+0 -12239-2 0  9995
2 47271  87.8942 145.2097 0001820  83.9769 276.1567 13.12443926162796
ONEWEB-0126             
1 47272U 20100Q   24122.49579801  .00000099  00000+0  24095-3 0  9999
2 47272  87.8939 145.2735 0002207  93.2061 266.9320 13.12446436162828
ONEWEB-0127             
1 47273U 20100R   24122.45690573 -.00000051  00000+0 -17738-3 0  9992
2 47273  87.8940 145.3077 0002172  93.1395 266.9982 13.12441561162841
ONEWEB-0128             
1 47274U 20100S   24122.32664958 -.00000664  00000+0 -18810-2 0  9998
2 47274  87.8950 145.3343 0002047 102.3561 257.7796 13.12443964162848
ONEWEB-0129             
1 47275U 20100T   24122.30602122 -.00000122  00000+0 -37546-3 0  9999
2 47275  87.8942 145.3082 0003672  87.2088 272.9461 13.12441640162779
ONEWEB-0130             
1 47276U 20100U   24122.33460338 -.00000168  00000+0 -50145-3 0  9994
2 47276  87.8941 145.3113 0002162  96.7506 263.3869 13.12442604162741
ONEWEB-0131             
1 47277U 20100V   24122.78885309 -.00000357  00000+0 -10289-2 0  9997
2 47277  87.8942 145.2346 0002029  97.3206 262.8153 13.12443406162848
ONEWEB-0132             
1 47278U 20100W   24122.35999724  .00002913  00000+0  80581-2 0  9998
2 47278  87.8945 145.3217 0001726  94.9212 265.2114 13.12465133162680
ONEWEB-0133             
1 47279U 20100X   24122.29966410  .00000151  00000+0  38353-3 0  9991
2 47279  87.8938 145.3346 0001966  97.3945 262.7407 13.12442842162838
ONEWEB-0134             
1 47280U 20100Y   24122.80314796  .00000097  00000+0  23349-3 0  9992
2 47280  87.8935 145.2232 0002200 100.1737 259.9639 13.12443267162875
ONEWEB-0135             
1 47281U 20100Z   24122.77137361 -.00000189  00000+0 -56019-3 0  9994
2 47281  87.8941 145.2422 0002083  95.3290 264.8076 13.12443963162897
ONEWEB-0136             
1 47282U 20100AA  24122.79361240 -.00000244  00000+0 -71257-3 0  9995
2 47282  87.8941 145.2065 0002467 102.7466 257.3938 13.12442112162827
ONEWEB-0137             
1 47283U 20100AB  24122.82696321 -.00000213  00000+0 -62783-3 0  9991
2 47283  87.8931 145.2265 0002317  83.0006 277.1386 13.12443785162738
ONEWEB-0138             
1 47284U 20100AC  24122.34887856  .00000333  00000+0  89063-3 0  9995
2 47284  87.8937 145.3338 0002146  95.0091 265.1282 13.12446565162757
ONEWEB-0139             
1 47285U 20100AD  24122.77773085 -.00000396  00000+0 -11369-2 0  9995
2 47285  87.8941 145.2194 0002095  94.8831 265.2537 13.12443453162885
ONEWEB-0140             
1 47286U 20100AE  24122.79997885 -.00000023  00000+0 -98371-4 0  9991
2 47286  87.8937 145.2197 0002194  96.2412 263.8966 13.12444159162845
ONEWEB-0141             
1 47287U 20100AF  24122.36239401  .00000422  00000+0  11370-2 0  9991
2 47287  87.8938 145.3058 0001947  87.1150 273.0201 13.12444751162783
ONEWEB-0142             
1 47288U 20100AG  24122.81346776  .00000413  00000+0  11124-2 0  9993
2 47288  87.8937 145.2088 0002294  90.4983 269.6408 13.12442576162831
ONEWEB-0143             
1 47289U 20100AH  24122.46166723 -.00000219  00000+0 -64552-3 0  9997
2 47289  87.8938 145.2984 0001990  91.3385 268.7971 13.12441472162767
ONEWEB-0144             
1 47290U 20100AJ  24122.81587290  .00000466  00000+0  12585-2 0  9994
2 47290  87.8937 145.2120 0002453  92.6571 267.4839 13.12443558162739
ONEWEB-0145             
1 47291U 20100AK  24122.32984647 -.00000292  00000+0 -84709-3 0  9995
2 47291  87.8941 145.3326 0002197  93.0134 267.1246 13.12443913162867
ONEWEB-0146             
1 47292U 20100AL  24122.78249596 -.00000413  00000+0 -11821-2 0  9992
2 47292  87.8938 145.2252 0001582  93.8141 266.3169 13.12443597162834
ONEWEB-0147             
1 47293U 20100AM  24122.82539577  .00000525  00000+0  14239-2 0  9997
2 47293  87.8936 145.2127 0002258 100.3975 259.7408 13.12441597162733
ONEWEB-0115             
1 48042U 21025A   24122.39248497 -.00000269  00000+0 -77242-3 0  9998
2 48042  87.8886 114.8665 0001838  90.1441 269.9899 13.13470594151629
ONEWEB-0152             
1 48043U 21025B   24122.40518236 -.00000068  00000+0 -22248-3 0  9995
2 48043  87.8889 114.8595 0001898  89.8540 270.2806 13.13470340151583
ONEWEB-0153             
1 48044U 21025C   24122.38295058 -.00000230  00000+0 -66425-3 0  9993
2 48044  87.8894 114.8502 0002100  88.2417 271.8952 13.13469324151579
ONEWEB-0154             
1 48045U 21025D   24122.68448939 -.00000084  00000+0 -26530-3 0  9995
2 48045  87.8889 114.8031 0002001  89.6004 270.5354 13.13469896151585
ONEWEB-0116             
1 48046U 21025E   24122.42103308  .00000338  00000+0  89072-3 0  9996
2 48046  87.8893 114.8232 0001767  90.7091 269.4240 13.13472692151681
ONEWEB-0150             
1 48047U 21025F   24122.01476309 -.00000194  00000+0 -56583-3 0  9999
2 48047  87.8887 114.9261 0002083  85.5637 274.5730 13.13470552151525
ONEWEB-0107             
1 48048U 21025G   24122.39722503 -.00000552  00000+0 -15466-2 0  9993
2 48048  87.8886 114.8478 0002275  83.6620 276.4768 13.13469788151552
ONEWEB-0101             
1 48049U 21025H   24122.74161600  .00000351  00000+0  92633-3 0  9995
2 48049  87.8893 114.7925 0002079  91.5724 268.5643 13.13469530151573
ONEWEB-0113             
1 48050U 21025J   24122.41468174  .00000169  00000+0  42814-3 0  9990
2 48050  87.8891 114.8398 0001825  90.6589 269.4749 13.13473151151611
ONEWEB-0112             
1 48051U 21025K   24122.40199726 -.00000148  00000+0 -44144-3 0  9991
2 48051  87.8887 114.8445 0001979  85.7750 274.3605 13.13470001151623
